OBJECT_NAME,OBJECT_ID,EPOCH,MEAN_MOTION,ECCENTRICITY,INCLINATION,RA_OF_ASC_NODE,ARG_OF_PERICENTER,MEAN_ANOMALY,EPHEMERIS_TYPE,CLASSIFICATION_TYPE,NORAD_CAT_ID,ELEMENT_SET_NO,REV_AT_EPOCH,BSTAR,MEAN_MOTION_DOT,MEAN_MOTION_DDOT
IONOSFERA-M 4,2025-155B,2026-06-14T21:17:55.531392,14.21488284,.0000968,98.6030,127.7677,120.4667,239.6606,0,U,64877,999,4607,.31283E-4,.26E-6,0
MICROCARB,2025-156A,2026-06-14T18:30:24.729120,14.72323224,.0014973,97.9832,242.9515,280.6962,79.2559,0,U,64899,999,4761,.76944E-4,.437E-5,0
CO3D 3,2025-156B,2026-06-14T19:37:56.189280,15.20205583,.0001347,97.4334,244.5448,131.5526,228.5825,0,U,64900,999,4917,.19578E-3,.4173E-4,0
CO3D 4,2025-156C,2026-06-14T16:28:35.111136,15.20205212,.0000437,97.4335,244.4153,12.2850,347.8395,0,U,64901,999,4915,.14595E-4,.249E-5,0
CO3D 2,2025-156D,2026-06-14T18:50:08.556864,15.20201949,.0001486,97.4335,244.4110,108.7727,251.3669,0,U,64902,999,4916,.19396E-3,.4134E-4,0
CO3D 1,2025-156E,2026-06-14T18:50:21.599808,15.20201967,.000126,97.4334,244.4114,113.9615,246.1752,0,U,64903,999,4916,.23069E-3,.493E-4,0
PRSC-S1,2025-164A,2026-06-14T19:27:45.464832,15.06439975,.0006987,41.1315,301.1951,329.2199,30.8205,0,U,65055,999,4807,.31294E-3,.4524E-4,0
SENTINEL-6B,2025-264A,2026-06-14T15:58:17.264640,12.80929980,.0008027,66.0393,140.4160,269.2160,90.7935,0,U,66514,999,2684,-.16418E-4,-.65E-6,0
CAS500-3,2025-274F,2026-06-14T19:04:40.480608,14.88316008,.0006658,97.7446,93.9003,116.2845,243.9056,0,U,66655,999,2979,.12397E-3,.1093E-4,0
CSG-3,2026-001A,2026-06-14T18:26:51.902592,14.82152258,.0001342,97.8885,349.4054,93.9649,266.1718,0,U,67304,999,2410,.41514E-4,.278E-5,0
PRSC-E03,2026-092A,2026-06-14T19:15:20.149056,15.06657945,.0004167,38.0003,103.7428,345.5390,14.5252,0,U,68835,999,759,.17121E-3,.248E-4,0
CAS500-2,2026-100AK,2026-06-14T15:38:12.918624,15.20564524,.0010928,97.4086,63.5509,42.6970,317.5113,0,U,69013,999,642,.28847E-3,.6258E-4,0
