IONOSFERA-M 4           
1 64877U 25155B   26165.88744828  .00000026  00000+0  31283-4 0  9997
2 64877  98.6030 127.7677 0000968 120.4667 239.6606 14.21488284 46077
MICROCARB               
1 64899U 25156A   26165.77111955  .00000437  00000+0  76944-4 0  9998
2 64899  97.9832 242.9515 0014973 280.6962  79.2559 14.72323224 47616
CO3D 3                  
1 64900U 25156B   26165.81801145  .00004173  00000+0  19578-3 0  9993
2 64900  97.4334 244.5448 0001347 131.5526 228.5825 15.20205583 49174
CO3D 4                  
1 64901U 25156C   26165.68651749  .00000249  00000+0  14595-4 0  9997
2 64901  97.4335 244.4153 0000437  12.2850 347.8395 15.20205212 49156
CO3D 2                  
1 64902U 25156D   26165.78482126  .00004134  00000+0  19396-3 0  9990
2 64902  97.4335 244.4110 0001486 108.7727 251.3669 15.20201949 49166
CO3D 1                  
1 64903U 25156E   26165.78497222  .00004930  00000+0  23069-3 0  9990
2 64903  97.4334 244.4114 0001260 113.9615 246.1752 15.20201967 49169
PRSC-S1                 
1 65055U 25164A   26165.81094288  .00004524  00000+0  31294-3 0  9995
2 65055  41.1315 301.1951 0006987 329.2199  30.8205 15.06439975 48079
SENTINEL-6B             
1 66514U 25264A   26165.66547760 -.00000065  00000+0 -16418-4 0  9998
2 66514  66.0393 140.4160 0008027 269.2160  90.7935 12.80929980 26841
CAS500-3                
1 66655U 25274F   26165.79491297  .00001093  00000+0  12397-3 0  9993
2 66655  97.7446  93.9003 0006658 116.2845 243.9056 14.88316008 29798
CSG-3                   
1 67304U 26001A   26165.76865628  .00000278  00000+0  41514-4 0  9992
2 67304  97.8885 349.4054 0001342  93.9649 266.1718 14.82152258 24102
PRSC-E03                
1 68835U 26092A   26165.80231654  .00002480  00000+0  17121-3 0  9996
2 68835  38.0003 103.7428 0004167 345.5390  14.5252 15.06657945  7596
CAS500-2                
1 69013U 26100AK  26165.65153841  .00006258  00000+0  28847-3 0  9993
2 69013  97.4086  63.5509 0010928  42.6970 317.5113 15.20564524  6428
